OBJECT_NAME,OBJECT_ID,EPOCH,MEAN_MOTION,ECCENTRICITY,INCLINATION,RA_OF_ASC_NODE,ARG_OF_PERICENTER,MEAN_ANOMALY,EPHEMERIS_TYPE,CLASSIFICATION_TYPE,NORAD_CAT_ID,ELEMENT_SET_NO,REV_AT_EPOCH,BSTAR,MEAN_MOTION_DOT,MEAN_MOTION_DDOT
GLOBAL-19,2023-041B,2026-07-02T19:29:00.329568,15.38397706,.0007597,42.0013,110.7479,128.8652,231.2867,0,U,55982,999,18433,.38719E-3,.14771E-3,0
ION SCV-010,2023-054Q,2026-07-02T18:19:44.962176,15.26330015,.0013833,97.3759,73.0661,143.3431,216.8757,0,U,56192,999,17857,.21793E-3,.5601E-4,0
TELEOS-2,2023-057C,2026-07-02T21:15:27.700128,14.96408489,.0000853,9.9882,89.8696,264.2466,95.7651,0,U,56310,999,17515,.47498E-3,.6224E-4,0
SNIPE 4,2023-072B,2026-07-02T20:19:22.891008,15.42941354,.0003913,97.5233,30.3534,260.8064,99.2741,0,U,56744,999,17252,.54482E-3,.23922E-3,0
SNIPE 2,2023-072C,2026-07-02T20:14:06.583200,15.47646397,.0002873,97.5225,33.5039,299.7023,60.3940,0,U,56745,999,17266,.57833E-3,.29836E-3,0
2023-072G,2023-072G,2026-07-02T20:52:55.030368,15.51475221,.0001519,97.4878,32.3542,279.0001,81.1079,0,U,56749,999,17289,.57688E-3,.3406E-3,0
GEISAT PRECURSOR,2023-084C,2026-07-02T20:47:59.238240,15.34866205,.0004048,97.6246,325.3391,288.3641,71.7161,0,U,56934,999,16993,.25137E-3,.8417E-4,0
BLACKJACK ACES-3,2023-084U,2026-07-02T20:28:21.264096,15.18625195,.0001245,97.6237,319.1651,345.9583,14.1616,0,U,56950,999,16954,.3491E-3,.7158E-4,0
BLACKJACK ACES-2,2023-084Z,2026-07-02T09:32:42.048096,15.18598662,.000076,97.6232,318.7907,140.8256,219.3033,0,U,56955,999,16948,.39602E-3,.8125E-4,0
BLACKJACK ACES-1,2023-084AA,2026-07-02T20:19:26.454144,15.18652160,.00014,97.6223,319.0156,127.2412,232.8949,0,U,56956,999,11927,.41724E-3,.8578E-4,0
ION SCV-011,2023-084AB,2026-07-02T13:51:17.032608,15.28992625,.0006842,98.1375,12.2836,354.5361,5.5801,0,U,56957,999,16816,.20345E-3,.5643E-4,0
GHOST-3,2023-084AC,2026-07-02T19:19:55.848000,15.48412197,.0006136,97.6237,333.2210,229.9005,130.1708,0,U,56958,999,17043,.44048E-3,.23306E-3,0
AFR-1,2023-084AJ,2026-07-02T21:03:26.320608,15.28687838,.0008986,97.6298,320.9484,285.3579,74.6667,0,U,56964,999,16962,.20077E-3,.5526E-4,0
METEOR-M2 3,2023-091A,2026-07-02T20:05:35.745792,14.24048063,.0005013,98.6080,238.4948,117.9649,242.2037,0,U,57166,999,15674,.17327E-4,-.3E-7,0
UMKA 1 (RS40S),2023-091G,2026-07-02T19:38:21.475104,15.21002545,.0014058,97.5039,242.4563,69.3438,290.9303,0,U,57172,999,16638,.34053E-3,.7503E-4,0
2023-091H,2023-091H,2026-07-02T19:49:45.727680,15.28982176,.0010729,97.5038,247.1473,65.4355,294.8001,0,U,57173,999,16669,.47848E-3,.13423E-3,0
2023-091J,2023-091J,2026-07-02T20:27:32.004864,15.14038999,.0014871,97.5041,236.7259,94.4315,265.8615,0,U,57174,999,16600,.25092E-3,.4506E-4,0
CUBEBEL 2 (EU11S),2023-091K,2026-07-02T19:43:02.390016,15.29555200,.0010702,97.5041,247.1813,66.6890,293.5475,0,U,57175,999,16669,.5487E-3,.15683E-3,0
SITRO-AIS 5 (KATYS),2023-091L,2026-07-02T20:03:16.850880,15.29821063,.0011929,97.5050,247.8866,54.3065,305.9283,0,U,57176,999,16673,.49912E-3,.14379E-3,0
ZORKIY-2M 1,2023-091M,2026-07-02T19:17:19.571136,15.21110647,.001447,97.5079,242.7205,66.5982,293.6773,0,U,57177,999,16637,.34121E-3,.7543E-4,0
CUBESX-HSE 3 (RS42S),2023-091N,2026-07-02T18:58:20.589312,15.31612828,.0010996,97.5082,249.5780,45.1309,315.0823,0,U,57178,999,16681,.4857E-3,.14786E-3,0
MONITOR-3 (RS58S),2023-091Q,2026-07-02T20:23:42.237024,15.28162557,.0012254,97.5073,247.4131,51.4417,308.7918,0,U,57180,999,16668,.4867E-3,.13323E-3,0
MONITOR-4 (RS57S),2023-091S,2026-07-02T19:52:17.713056,15.28246854,.0012271,97.5067,247.3631,51.9563,308.2781,0,U,57182,999,16668,.44726E-3,.12267E-3,0
MONITOR-2 (RS39S),2023-091U,2026-07-02T19:02:35.450304,15.19056794,.0012418,97.5060,241.9761,63.6128,296.6380,0,U,57184,999,16632,.27855E-3,.5781E-4,0
SVYATOBOR 1 (RS60S),2023-091X,2026-07-02T18:56:27.455424,15.26882485,.001,97.5080,247.6943,46.5858,313.6212,0,U,57187,999,16669,.39789E-3,.10451E-3,0
HORS 1,2023-091Y,2026-07-02T20:08:23.145792,15.26999598,.0009466,97.5056,247.5049,46.5186,313.6838,0,U,57188,999,16670,.44512E-3,.11742E-3,0
VIZARD-METEO (RS38S),2023-091Z,2026-07-02T20:17:04.725312,15.36531076,.0006893,97.5083,253.6485,27.0147,333.1454,0,U,57189,999,16709,.54974E-3,.19557E-3,0
SITRO-AIS 6 (CHIRKIN),2023-091AC,2026-07-02T20:25:21.134784,15.26237516,.0012385,97.5058,246.9376,57.5970,302.6465,0,U,57192,999,16667,.47824E-3,.12346E-3,0
SITRO-AIS 8 (ANOKHIN),2023-091AD,2026-07-02T19:47:58.087104,15.32566965,.0010779,97.5047,249.5289,50.4495,309.7697,0,U,57193,999,16684,.5292E-3,.16609E-3,0
SITRO-AIS 7 (FARTUSHNIY),2023-091AE,2026-07-02T19:00:06.818976,15.25915941,.0012303,97.5053,246.6948,58.8011,301.4432,0,U,57194,999,16665,.43051E-3,.10997E-3,0
