GLOBAL-19               
1 55982U 23041B   26183.81180937  .00014771  00000+0  38719-3 0  9996
2 55982  42.0013 110.7479 0007597 128.8652 231.2867 15.38397706184337
ION SCV-010             
1 56192U 23054Q   26183.76371484  .00005601  00000+0  21793-3 0  9993
2 56192  97.3759  73.0661 0013833 143.3431 216.8757 15.26330015178575
TELEOS-2                
1 56310U 23057C   26183.88573727  .00006224  00000+0  47498-3 0  9997
2 56310   9.9882  89.8696 0000853 264.2466  95.7651 14.96408489175150
SNIPE 4                 
1 56744U 23072B   26183.84679272  .00023922  00000+0  54482-3 0  9998
2 56744  97.5233  30.3534 0003913 260.8064  99.2741 15.42941354172524
SNIPE 2                 
1 56745U 23072C   26183.84313175  .00029836  00000+0  57833-3 0  9999
2 56745  97.5225  33.5039 0002873 299.7023  60.3940 15.47646397172660
2023-072G               
1 56749U 23072G   26183.87008137  .00034060  00000+0  57688-3 0  9998
2 56749  97.4878  32.3542 0001519 279.0001  81.1079 15.51475221172896
GEISAT PRECURSOR        
1 56934U 23084C   26183.86665785  .00008417  00000+0  25137-3 0  9995
2 56934  97.6246 325.3391 0004048 288.3641  71.7161 15.34866205169938
BLACKJACK ACES-3        
1 56950U 23084U   26183.85302389  .00007158  00000+0  34910-3 0  9990
2 56950  97.6237 319.1651 0001245 345.9583  14.1616 15.18625195169543
BLACKJACK ACES-2        
1 56955U 23084Z   26183.39770889  .00008125  00000+0  39602-3 0  9996
2 56955  97.6232 318.7907 0000760 140.8256 219.3033 15.18598662169485
BLACKJACK ACES-1        
1 56956U 23084AA  26183.84683396  .00008578  00000+0  41724-3 0  9993
2 56956  97.6223 319.0156 0001400 127.2412 232.8949 15.18652160119273
ION SCV-011             
1 56957U 23084AB  26183.57728047  .00005643  00000+0  20345-3 0  9993
2 56957  98.1375  12.2836 0006842 354.5361   5.5801 15.28992625168166
GHOST-3                 
1 56958U 23084AC  26183.80550750  .00023306  00000+0  44048-3 0  9996
2 56958  97.6237 333.2210 0006136 229.9005 130.1708 15.48412197170433
AFR-1                   
1 56964U 23084AJ  26183.87738797  .00005526  00000+0  20077-3 0  9999
2 56964  97.6298 320.9484 0008986 285.3579  74.6667 15.28687838169629
METEOR-M2 3             
1 57166U 23091A   26183.83721928 -.00000003  00000+0  17327-4 0  9997
2 57166  98.6080 238.4948 0005013 117.9649 242.2037 14.24048063156747
UMKA 1 (RS40S)          
1 57172U 23091G   26183.81830411  .00007503  00000+0  34053-3 0  9995
2 57172  97.5039 242.4563 0014058  69.3438 290.9303 15.21002545166389
2023-091H               
1 57173U 23091H   26183.82622370  .00013423  00000+0  47848-3 0  9994
2 57173  97.5038 247.1473 0010729  65.4355 294.8001 15.28982176166693
2023-091J               
1 57174U 23091J   26183.85245376  .00004506  00000+0  25092-3 0  9994
2 57174  97.5041 236.7259 0014871  94.4315 265.8615 15.14038999166008
CUBEBEL 2 (EU11S)       
1 57175U 23091K   26183.82155544  .00015683  00000+0  54870-3 0  9993
2 57175  97.5041 247.1813 0010702  66.6890 293.5475 15.29555200166691
SITRO-AIS 5 (KATYS)     
1 57176U 23091L   26183.83561170  .00014379  00000+0  49912-3 0  9993
2 57176  97.5050 247.8866 0011929  54.3065 305.9283 15.29821063166730
ZORKIY-2M 1             
1 57177U 23091M   26183.80369874  .00007543  00000+0  34121-3 0  9999
2 57177  97.5079 242.7205 0014470  66.5982 293.6773 15.21110647166378
CUBESX-HSE 3 (RS42S)    
1 57178U 23091N   26183.79051608  .00014786  00000+0  48570-3 0  9991
2 57178  97.5082 249.5780 0010996  45.1309 315.0823 15.31612828166814
MONITOR-3 (RS58S)       
1 57180U 23091Q   26183.84979441  .00013323  00000+0  48670-3 0  9991
2 57180  97.5073 247.4131 0012254  51.4417 308.7918 15.28162557166687
MONITOR-4 (RS57S)       
1 57182U 23091S   26183.82798279  .00012267  00000+0  44726-3 0  9993
2 57182  97.5067 247.3631 0012271  51.9563 308.2781 15.28246854166688
MONITOR-2 (RS39S)       
1 57184U 23091U   26183.79346586  .00005781  00000+0  27855-3 0  9998
2 57184  97.5060 241.9761 0012418  63.6128 296.6380 15.19056794166325
SVYATOBOR 1 (RS60S)     
1 57187U 23091X   26183.78920666  .00010451  00000+0  39789-3 0  9996
2 57187  97.5080 247.6943 0010000  46.5858 313.6212 15.26882485166696
HORS 1                  
1 57188U 23091Y   26183.83915678  .00011742  00000+0  44512-3 0  9994
2 57188  97.5056 247.5049 0009466  46.5186 313.6838 15.26999598166704
VIZARD-METEO (RS38S)    
1 57189U 23091Z   26183.84519358  .00019557  00000+0  54974-3 0  9996
2 57189  97.5083 253.6485 0006893  27.0147 333.1454 15.36531076167097
SITRO-AIS 6 (CHIRKIN)   
1 57192U 23091AC  26183.85093906  .00012346  00000+0  47824-3 0  9992
2 57192  97.5058 246.9376 0012385  57.5970 302.6465 15.26237516166679
SITRO-AIS 8 (ANOKHIN)   
1 57193U 23091AD  26183.82497786  .00016609  00000+0  52920-3 0  9993
2 57193  97.5047 249.5289 0010779  50.4495 309.7697 15.32566965166843
SITRO-AIS 7 (FARTUSHNIY)
1 57194U 23091AE  26183.79174559  .00010997  00000+0  43051-3 0  9999
2 57194  97.5053 246.6948 0012303  58.8011 301.4432 15.25915941166651
